      2.10          N: GNSS NAV DATA                        RINEX VERSION / TYPE
fic2rin                                 05/05/2019 00:19:48 PGM / RUN BY / DATE
                                                            END OF HEADER
29 19  5  4 14  0  0.0 2.098451368511e-04-9.208633855451e-12 0.000000000000e+00
    9.400000000000e+01-9.796875000000e+01 3.655152251763e-09 3.187526455557e-02
   -5.125999450684e-06 1.003774814308e-03 1.109391450882e-05 5.153766040802e+03
    5.688000000000e+05-4.470348358154e-08 2.814275362917e+00 7.450580596924e-09
    9.857828302231e-01 1.783750000000e+02 1.634789400409e+00-7.617102997200e-09
   -3.367997433469e-10 1.000000000000e+00 2.051000000000e+03 0.000000000000e+00
    3.400000000000e+00 0.000000000000e+00-9.778887033463e-09 9.400000000000e+01
    5.616000000000e+05 4.000000000000e+00
22 19  5  4 13 59 44.0-6.951480172575e-04-6.480149750132e-12 0.000000000000e+00
    5.000000000000e+00 7.468750000000e+00 5.744167839076e-09-1.393104636857e+00
    6.016343832016e-07 7.265349500813e-03 3.928318619728e-06 5.153803567886e+03
    5.687840000000e+05-9.126961231232e-08-1.510868562083e+00 1.415610313416e-07
    9.267733772254e-01 2.875312500000e+02-1.357185562443e+00-8.808224040744e-09
    1.675069773380e-10 1.000000000000e+00 2.051000000000e+03 0.000000000000e+00
    2.400000000000e+00 0.000000000000e+00-1.816079020500e-08 5.000000000000e+00
    5.671500000000e+05 4.000000000000e+00
24 19  5  4 13 59 44.0-6.562843918800e-05-5.684341886081e-13 0.000000000000e+00
    0.000000000000e+00 1.220000000000e+02 4.961635243452e-09-2.505875539912e+00
    6.150454282761e-06 8.266618591733e-03 8.618459105492e-06 5.153724424362e+03
    5.687840000000e+05 4.842877388000e-08 6.039630138495e-01-1.359730958939e-07
    9.391962405618e-01 2.019687500000e+02 6.071429720447e-01-8.204984627687e-09
    3.775157250453e-10 1.000000000000e+00 2.051000000000e+03 0.000000000000e+00
    2.400000000000e+00 0.000000000000e+00 2.793967723846e-09 0.000000000000e+00
    5.685000000000e+05 4.000000000000e+00
24 19  5  4 15 59 44.0-6.563216447830e-05-5.684341886081e-13 0.000000000000e+00
    1.000000000000e+00 1.130000000000e+02 4.944848829945e-09-1.455642120149e+00
    5.822628736496e-06 8.266932098195e-03 8.564442396164e-06 5.153725332260e+03
    5.759840000000e+05 1.601874828339e-07 6.039039046445e-01-6.146728992462e-08
    9.391990727712e-01 2.018125000000e+02 6.070630294233e-01-8.243557662980e-09
    3.782300405137e-10 1.000000000000e+00 2.051000000000e+03 0.000000000000e+00
    2.400000000000e+00 0.000000000000e+00 2.793967723846e-09 1.000000000000e+00
    5.688000000000e+05 4.000000000000e+00
22 19  5  4 15 59 44.0-6.951950490475e-04-6.480149750132e-12 0.000000000000e+00
    6.000000000000e+00 1.593750000000e+00 5.723452690492e-09-3.430882804897e-01
    1.452863216400e-07 7.264920743182e-03 3.946945071220e-06 5.153802040100e+03
    5.759840000000e+05-2.216547727585e-07-1.510931752829e+00 3.911554813385e-08
    9.267745080611e-01 2.873125000000e+02-1.357091183746e+00-8.795009204579e-09
    9.714690370133e-11 1.000000000000e+00 2.051000000000e+03 0.000000000000e+00
    2.400000000000e+00 0.000000000000e+00-1.816079020500e-08 6.000000000000e+00
    5.688000000000e+05 4.000000000000e+00
 1 19  5  4 16  0  0.0-8.631031960249e-06-8.640199666843e-12 0.000000000000e+00
    6.800000000000e+01 2.500000000000e+01 3.957307694893e-09-1.717901764407e+00
    1.294538378716e-06 8.758754353039e-03 1.056864857674e-05 5.153653959274e+03
    5.760000000000e+05 1.247972249985e-07-2.481188102438e+00-1.527369022369e-07
    9.754776271186e-01 1.836875000000e+02 6.947341665352e-01-7.586387432059e-09
    5.657378509666e-10 1.000000000000e+00 2.051000000000e+03 0.000000000000e+00
    2.400000000000e+00 0.000000000000e+00 5.587935447693e-09 6.800000000000e+01
    5.688000000000e+05 4.000000000000e+00
 5 19  5  4 16  0  0.0 1.008622348309e-06-1.136868377216e-13 0.000000000000e+00
    3.300000000000e+01-2.406250000000e+00 5.212002815123e-09 1.245698293088e+00
   -5.587935447693e-08 5.598373827524e-03 3.937631845474e-06 5.153671480179e+03
    5.760000000000e+05-4.656612873077e-08-1.465216778537e+00 2.980232238770e-08
    9.491791847572e-01 2.996875000000e+02 7.039954049658e-01-8.548213210249e-09
   -3.500145795122e-11 1.000000000000e+00 2.051000000000e+03 0.000000000000e+00
    2.400000000000e+00 0.000000000000e+00-1.117587089539e-08 3.300000000000e+01
    5.688000000000e+05 4.000000000000e+00
 3 19  5  4 16  0  0.0 1.882431097329e-04-2.273736754432e-13 0.000000000000e+00
    2.300000000000e+01-5.593750000000e+00 4.836987194218e-09-2.636663517585e+00
   -2.328306436539e-07 2.115755225532e-03 4.248693585396e-06 5.153786094666e+03
    5.760000000000e+05-2.980232238770e-08-1.438677475492e+00 6.146728992462e-08
    9.623023001648e-01 2.987187500000e+02 5.781064634490e-01-8.217127990649e-09
    3.714440435639e-11 1.000000000000e+00 2.051000000000e+03 0.000000000000e+00
    2.400000000000e+00 0.000000000000e+00 1.862645149231e-09 2.300000000000e+01
    5.688000000000e+05 4.000000000000e+00
 2 19  5  4 16  0  0.0-2.050283364952e-04-9.208633855451e-12 0.000000000000e+00
    5.700000000000e+01 3.065625000000e+01 4.483758195098e-09-1.435816332496e+00
    1.803040504456e-06 1.887464837637e-02 1.031346619129e-05 5.153704273224e+03
    5.760000000000e+05 1.620501279831e-07-2.549428353467e+00 4.582107067108e-07
    9.546241731629e-01 1.802187500000e+02-1.744193285703e+00-8.000333245992e-09
    3.932306653499e-10 1.000000000000e+00 2.051000000000e+03 0.000000000000e+00
    2.400000000000e+00 0.000000000000e+00-2.048909664154e-08 5.700000000000e+01
    5.688000000000e+05 4.000000000000e+00
 7 19  5  4 16  0  0.0-1.763552427292e-05-7.503331289627e-12 0.000000000000e+00
    7.600000000000e+01 1.198750000000e+02 4.560547107950e-09-2.301186135696e+00
    5.900859832764e-06 1.260963000823e-02 9.041279554367e-06 5.153761453629e+03
    5.760000000000e+05 1.881271600723e-07 6.694499565007e-01-1.750886440277e-07
    9.560025477434e-01 2.018750000000e+02-2.471452120758e+00-8.008547873879e-09
    5.293077620786e-10 1.000000000000e+00 2.051000000000e+03 0.000000000000e+00
    2.400000000000e+00 0.000000000000e+00-1.117587089539e-08 7.600000000000e+01
    5.688000000000e+05 4.000000000000e+00
 8 19  5  4 16  0  0.0-1.423317007720e-04-1.364242052659e-12 0.000000000000e+00
    8.000000000000e+01-1.210312500000e+02 4.192674641728e-09 6.524630111205e-01
   -6.347894668579e-06 4.412831622176e-03 9.607523679733e-06 5.153735912323e+03
    5.760000000000e+05 7.450580596924e-08 2.735938566252e+00-2.048909664154e-08
    9.704678743966e-01 1.945937500000e+02-2.461384713525e-01-7.969260523117e-09
   -4.528760069606e-10 1.000000000000e+00 2.051000000000e+03 0.000000000000e+00
    2.400000000000e+00 0.000000000000e+00 5.122274160385e-09 8.000000000000e+01
    5.688000000000e+05 4.000000000000e+00
 6 19  5  4 16  0  0.0 2.142614684999e-04-9.777068044059e-12 0.000000000000e+00
    5.100000000000e+01 2.612500000000e+01 4.066240803822e-09-1.541655573583e+00
    1.370906829834e-06 1.583752920851e-03 1.057982444763e-05 5.153575281143e+03
    5.760000000000e+05 2.980232238770e-08-2.489467626285e+00 1.490116119385e-08
    9.751352326051e-01 1.852812500000e+02-1.088765738389e+00-7.760680406347e-09
    5.018066165455e-10 1.000000000000e+00 2.051000000000e+03 0.000000000000e+00
    2.400000000000e+00 0.000000000000e+00 4.190951585770e-09 5.100000000000e+01
    5.688000000000e+05 4.000000000000e+00
 4 19  5  4 16  0  0.0 1.568468287587e-04 4.092726157978e-12 0.000000000000e+00
    2.200000000000e+01-2.590625000000e+01 4.333751946735e-09-2.469967560269e+00
   -1.439824700356e-06 4.030851414427e-04 1.111254096031e-05 5.153771310806e+03
    5.760000000000e+05 7.450580596924e-09-3.611466392757e-01-2.607703208923e-08
    9.601544453038e-01 1.602812500000e+02-1.599990477980e+00-7.896400345341e-09
   -4.253748614275e-10 1.000000000000e+00 2.051000000000e+03 0.000000000000e+00
    3.400000000000e+00 6.300000000000e+01-8.847564458847e-09 5.340000000000e+02
    5.688000000000e+05 4.000000000000e+00
19 19  5  4 16  0  0.0-3.229998983443e-04 4.547473508865e-12 0.000000000000e+00
    6.000000000000e+00-1.117500000000e+02 3.840517115810e-09-3.091467216818e+00
   -5.703419446945e-06 9.564869687892e-03 1.012906432152e-05 5.153638771057e+03
    5.760000000000e+05 1.676380634308e-07 2.849397296195e+00-5.774199962616e-08
    9.821644106100e-01 1.935937500000e+02 1.388314416937e+00-7.569243860818e-09
   -2.992981812563e-10 1.000000000000e+00 2.051000000000e+03 0.000000000000e+00
    2.400000000000e+00 0.000000000000e+00-1.536682248116e-08 6.000000000000e+00
    5.688000000000e+05 4.000000000000e+00
16 19  5  4 16  0  0.0-3.752671182156e-05-2.842170943040e-12 0.000000000000e+00
    2.500000000000e+01-2.728125000000e+01 4.631621497055e-09 1.317197910969e+00
   -1.175329089165e-06 1.081858819816e-02 1.901760697365e-06 5.153561288834e+03
    5.760000000000e+05-8.195638656616e-08 1.788399941716e+00 1.769512891769e-07
    9.830717109399e-01 3.577812500000e+02 5.739786689269e-01-8.483210502625e-09
   -2.792973481413e-10 1.000000000000e+00 2.051000000000e+03 0.000000000000e+00
    2.400000000000e+00 0.000000000000e+00-1.071020960808e-08 2.500000000000e+01
    5.688000000000e+05 4.000000000000e+00
13 19  5  4 16  0  0.0-6.509665399790e-05 1.591615728103e-12 0.000000000000e+00
    1.020000000000e+02-9.343750000000e+00 4.170888019942e-09-5.859597339292e-01
   -4.675239324570e-07 3.561356803402e-03 1.173280179501e-05 5.153670507431e+03
    5.760000000000e+05-3.352761268616e-08-2.693393880266e-01 4.656612873077e-08
    9.683246906330e-01 1.606250000000e+02 1.314297008786e+00-7.834254899591e-09
   -3.346567969417e-10 1.000000000000e+00 2.051000000000e+03 0.000000000000e+00
    3.400000000000e+00 0.000000000000e+00-1.117587089539e-08 1.020000000000e+02
    5.688000000000e+05 4.000000000000e+00
